QIANFAN-41              
1 62242U 24232F   25315.28461118  .00000244  00000+0  35894-3 0  9997
2 62242  89.0044  44.3644 0012113 281.4818  78.4973 13.50973152 95006
QIANFAN-42              
1 62243U 24232G   25315.30226942  .00001024  00000+0  43590-3 0  9994
2 62243  89.0036  40.9414 0015332 179.2259 180.8960 14.24437949 96897
QIANFAN-43              
1 62244U 24232H   25315.28043916  .00000196  00000+0  28570-3 0  9990
2 62244  89.0048  44.4286 0013631 287.5301  72.4361 13.50973759 63615
QIANFAN-44              
1 62245U 24232J   25315.26814525  .00000244  00000+0  36008-3 0  9990
2 62245  89.0046  44.2413 0011842 284.2342  75.7493 13.50975549 95082
QIANFAN-45              
1 62246U 24232K   25315.30926949  .00000221  00000+0  32399-3 0  9994
2 62246  89.0048  44.3824 0012502 283.5875  76.3883 13.50977779 95019
QIANFAN-46              
1 62247U 24232L   25315.25990756  .00000077  00000+0  10112-3 0  9994
2 62247  89.0046  44.4577 0012559 290.2890  69.6911 13.50974056 94963
QIANFAN-47              
1 62248U 24232M   25315.26403487  .00000225  00000+0  33038-3 0  9993
2 62248  89.0042  44.3916 0012989 289.2621  70.7125 13.50973121 94998
QIANFAN-48              
1 62249U 24232N   25315.30110589  .00000232  00000+0  34167-3 0  9999
2 62249  89.0046  44.3884 0015247 291.9727  67.9803 13.50984889 95001
